start=new Date('2023-05-30T00:00:00.000Z').valueOf();
sats=[{"SEMIMAJOR_AXIS":"6925.387","ARG_OF_PERICENTER":"123.7058","EPOCH":"2023-05-29T22:01:51.532320","MEAN_MOTION":"15.06387555","GP_ID":"232776174","BSTAR":"-0.00002715300000","ECCENTRICITY":"0.00009380","EPHEMERIS_TYPE":"0","LAUNCH_DATE":"2020-04-22","FILE":"3920354","OBJECT_TYPE":"PAYLOAD","INCLINATION":"53.0532","OBJECT_NAME":"STARLINK-1362","TLE_LINE2":"2 45538  53.0532 342.1028 0000938 123.7058 236.4020 15.06387555172148","MEAN_MOTION_DOT":"-0.00000685","APOAPSIS":"547.901","REV_AT_EPOCH":"17214","MEAN_MOTION_DDOT":"0.0000000000000","RCS_SIZE":"LARGE","TIME_SYSTEM":"UTC","MEAN_ELEMENT_THEORY":"SGP4","SITE":"AFETR","PERIOD":"95.593","REF_FRAME":"TEME","CENTER_NAME":"EARTH","CLASSIFICATION_TYPE":"U","RA_OF_ASC_NODE":"342.1028","DECAY_DATE":null,"OBJECT_ID":"2020-025H","MEAN_ANOMALY":"236.4020","PERIAPSIS":"546.602","ELEMENT_SET_NO":"999","NORAD_CAT_ID":"45538","TLE_LINE1":"1 45538U 20025H   23149.91795755 -.00000685  00000-0 -27153-4 0  9994","COUNTRY_CODE":"US"},{"DECAY_DATE":null,"OBJECT_ID":"2020-025K","CENTER_NAME":"EARTH","CLASSIFICATION_TYPE":"U","RA_OF_ASC_NODE":"342.5019","TIME_SYSTEM":"UTC","MEAN_ELEMENT_THEORY":"SGP4","SITE":"AFETR","PERIOD":"95.593","REF_FRAME":"TEME","RCS_SIZE":"LARGE","COUNTRY_CODE":"US","TLE_LINE1":"1 45540U 20025K   23149.82949303  .00001356  00000-0  10994-3 0  9995","ELEMENT_SET_NO":"999","NORAD_CAT_ID":"45540","MEAN_ANOMALY":"253.8133","PERIAPSIS":"546.569","BSTAR":"0.00010994000000","ECCENTRICITY":"0.00009670","MEAN_MOTION":"15.06391836","GP_ID":"232777425","ARG_OF_PERICENTER":"106.2963","SEMIMAJOR_AXIS":"6925.374","EPOCH":"2023-05-29T19:54:28.197792","TLE_LINE2":"2 45540  53.0550 342.5019 0000967 106.2963 253.8133 15.06391836172121","MEAN_MOTION_DOT":"0.00001356","APOAPSIS":"547.908","MEAN_MOTION_DDOT":"0.0000000000000","REV_AT_EPOCH":"17212","OBJECT_NAME":"STARLINK-1368","INCLINATION":"53.0550","OBJECT_TYPE":"PAYLOAD","EPHEMERIS_TYPE":"0","LAUNCH_DATE":"2020-04-22","FILE":"3920354"},{"OBJECT_ID":"2020-025L","DECAY_DATE":null,"RA_OF_ASC_NODE":"342.1876","CENTER_NAME":"EARTH","CLASSIFICATION_TYPE":"U","REF_FRAME":"TEME","PERIOD":"95.592","SITE":"AFETR","TIME_SYSTEM":"UTC","MEAN_ELEMENT_THEORY":"SGP4","RCS_SIZE":"LARGE","TLE_LINE1":"1 45541U 20025L   23149.89953185  .00003528  00000-0  25563-3 0  9997","COUNTRY_CODE":"US","NORAD_CAT_ID":"45541","ELEMENT_SET_NO":"999","PERIAPSIS":"546.440","MEAN_ANOMALY":"261.0158","BSTAR":"0.00025563000000","ECCENTRICITY":"0.00011400","GP_ID":"232777664","MEAN_MOTION":"15.06394892","EPOCH":"2023-05-29T21:35:19.551840","ARG_OF_PERICENTER":"99.0960","SEMIMAJOR_AXIS":"6925.364","APOAPSIS":"548.019","REV_AT_EPOCH":"17213","MEAN_MOTION_DDOT":"0.0000000000000","MEAN_MOTION_DOT":"0.00003528","TLE_LINE2":"2 45541  53.0552 342.1876 0001140  99.0960 261.0158 15.06394892172135","OBJECT_NAME":"STARLINK-1369","OBJECT_TYPE":"PAYLOAD","INCLINATION":"53.0552","FILE":"3920354","LAUNCH_DATE":"2020-04-22","EPHEMERIS_TYPE":"0"},{"RA_OF_ASC_NODE":"342.6313","CLASSIFICATION_TYPE":"U","CENTER_NAME":"EARTH","OBJECT_ID":"2020-025M","DECAY_DATE":null,"RCS_SIZE":"LARGE","REF_FRAME":"TEME","PERIOD":"95.593","SITE":"AFETR","MEAN_ELEMENT_THEORY":"SGP4","TIME_SYSTEM":"UTC","COUNTRY_CODE":"US","TLE_LINE1":"1 45542U 20025M   23149.80001174  .00002208  00000-0  16711-3 0  9990","PERIAPSIS":"546.653","MEAN_ANOMALY":"258.7442","NORAD_CAT_ID":"45542","ELEMENT_SET_NO":"999","BSTAR":"0.00016711000000","ECCENTRICITY":"0.00008390","EPOCH":"2023-05-29T19:12:01.014336","ARG_OF_PERICENTER":"101.3641","SEMIMAJOR_AXIS":"6925.369","GP_ID":"232775924","MEAN_MOTION":"15.06393341","OBJECT_NAME":"STARLINK-1371","APOAPSIS":"547.815","MEAN_MOTION_DDOT":"0.0000000000000","REV_AT_EPOCH":"17212","MEAN_MOTION_DOT":"0.00002208","TLE_LINE2":"2 45542  53.0546 342.6313 0000839 101.3641 258.7442 15.06393341172123","FILE":"3920354","LAUNCH_DATE":"2020-04-22","EPHEMERIS_TYPE":"0","INCLINATION":"53.0546","OBJECT_TYPE":"PAYLOAD"},{"INCLINATION":"53.0553","OBJECT_TYPE":"PAYLOAD","FILE":"3920354","LAUNCH_DATE":"2020-04-22","EPHEMERIS_TYPE":"0","APOAPSIS":"548.056","MEAN_MOTION_DDOT":"0.0000000000000","REV_AT_EPOCH":"17122","MEAN_MOTION_DOT":"-0.00000670","TLE_LINE2":"2 45543  53.0553 342.4691 0001197 107.1589 252.9531 15.06395513171220","OBJECT_NAME":"STARLINK-1372","GP_ID":"232776674","MEAN_MOTION":"15.06395513","EPOCH":"2023-05-29T20:05:05.410752","ARG_OF_PERICENTER":"107.1589","SEMIMAJOR_AXIS":"6925.362","BSTAR":"-0.00002611800000","ECCENTRICITY":"0.00011970","NORAD_CAT_ID":"45543","ELEMENT_SET_NO":"999","PERIAPSIS":"546.398","MEAN_ANOMALY":"252.9531","COUNTRY_CODE":"US","TLE_LINE1":"1 45543U 20025N   23149.83686818 -.00000670  00000-0 -26118-4 0  9994","REF_FRAME":"TEME","PERIOD":"95.592","SITE":"AFETR","TIME_SYSTEM":"UTC","MEAN_ELEMENT_THEORY":"SGP4","RCS_SIZE":"LARGE","OBJECT_ID":"2020-025N","DECAY_DATE":null,"RA_OF_ASC_NODE":"342.4691","CENTER_NAME":"EARTH","CLASSIFICATION_TYPE":"U"},{"ELEMENT_SET_NO":"999","NORAD_CAT_ID":"45544","MEAN_ANOMALY":"283.3551","PERIAPSIS":"546.796","TLE_LINE1":"1 45544U 20025P   23149.85530222 -.00000245  00000-0  24521-5 0  9998","COUNTRY_CODE":"US","MEAN_ELEMENT_THEORY":"SGP4","TIME_SYSTEM":"UTC","SITE":"AFETR","PERIOD":"95.593","REF_FRAME":"TEME","RCS_SIZE":"LARGE","DECAY_DATE":null,"OBJECT_ID":"2020-025P","CLASSIFICATION_TYPE":"U","CENTER_NAME":"EARTH","RA_OF_ASC_NODE":"342.3862","OBJECT_TYPE":"PAYLOAD","INCLINATION":"53.0546","EPHEMERIS_TYPE":"0","LAUNCH_DATE":"2020-04-22","FILE":"3920354","TLE_LINE2":"2 45544  53.0546 342.3862 0000654  76.7510 283.3551 15.06388434172139","MEAN_MOTION_DOT":"-0.00000245","APOAPSIS":"547.702","REV_AT_EPOCH":"17213","MEAN_MOTION_DDOT":"0.0000000000000","OBJECT_NAME":"STARLINK-1373","MEAN_MOTION":"15.06388434","GP_ID":"232776926","SEMIMAJOR_AXIS":"6925.384","ARG_OF_PERICENTER":"76.7510","EPOCH":"2023-05-29T20:31:38.111808","BSTAR":"0.00000245210000","ECCENTRICITY":"0.00006540"},{"MEAN_ANOMALY":"272.6433","PERIAPSIS":"546.477","ELEMENT_SET_NO":"999","NORAD_CAT_ID":"45545","COUNTRY_CODE":"US","TLE_LINE1":"1 45545U 20025Q   23149.80738286  .00012078  00000-0  82850-3 0  9997","RCS_SIZE":"LARGE","TIME_SYSTEM":"UTC","MEAN_ELEMENT_THEORY":"SGP4","SITE":"AFETR","PERIOD":"95.593","REF_FRAME":"TEME","CLASSIFICATION_TYPE":"U","CENTER_NAME":"EARTH","RA_OF_ASC_NODE":"342.5992","DECAY_DATE":null,"OBJECT_ID":"2020-025Q","EPHEMERIS_TYPE":"0","LAUNCH_DATE":"2020-04-22","FILE":"3920354","INCLINATION":"53.0554","OBJECT_TYPE":"PAYLOAD","OBJECT_NAME":"STARLINK-1374","TLE_LINE2":"2 45545  53.0554 342.5992 0001094  87.4681 272.6433 15.06393179172101","MEAN_MOTION_DOT":"0.00012078","APOAPSIS":"547.992","REV_AT_EPOCH":"17210","MEAN_MOTION_DDOT":"0.0000000000000","ARG_OF_PERICENTER":"87.4681","SEMIMAJOR_AXIS":"6925.369","EPOCH":"2023-05-29T19:22:37.879104","MEAN_MOTION":"15.06393179","GP_ID":"232777165","ECCENTRICITY":"0.00010940","BSTAR":"0.00082850000000"},{"BSTAR":"0.00027495000000","ECCENTRICITY":"0.00008470","ARG_OF_PERICENTER":"85.8064","SEMIMAJOR_AXIS":"6925.359","EPOCH":"2023-05-29T19:38:33.311904","MEAN_MOTION":"15.06396645","GP_ID":"232776424","OBJECT_NAME":"STARLINK-1375","TLE_LINE2":"2 45546  53.0551 342.5527 0000847  85.8064 274.3022 15.06396645172121","MEAN_MOTION_DOT":"0.00003816","REV_AT_EPOCH":"17212","APOAPSIS":"547.810","MEAN_MOTION_DDOT":"0.0000000000000","EPHEMERIS_TYPE":"0","LAUNCH_DATE":"2020-04-22","FILE":"3920354","INCLINATION":"53.0551","OBJECT_TYPE":"PAYLOAD","CENTER_NAME":"EARTH","CLASSIFICATION_TYPE":"U","RA_OF_ASC_NODE":"342.5527","DECAY_DATE":null,"OBJECT_ID":"2020-025R","RCS_SIZE":"LARGE","MEAN_ELEMENT_THEORY":"SGP4","TIME_SYSTEM":"UTC","SITE":"AFETR","PERIOD":"95.592","REF_FRAME":"TEME","COUNTRY_CODE":"US","TLE_LINE1":"1 45546U 20025R   23149.81844111  .00003816  00000-0  27495-3 0  9998","MEAN_ANOMALY":"274.3022","PERIAPSIS":"546.637","ELEMENT_SET_NO":"999","NORAD_CAT_ID":"45546"},{"TLE_LINE1":"1 45547U 20025S   23149.81475314  .00003865  00000-0  27830-3 0  9991","COUNTRY_CODE":"US","PERIAPSIS":"546.512","MEAN_ANOMALY":"280.4503","NORAD_CAT_ID":"45547","ELEMENT_SET_NO":"999","RA_OF_ASC_NODE":"342.5683","CLASSIFICATION_TYPE":"U","CENTER_NAME":"EARTH","OBJECT_ID":"2020-025S","DECAY_DATE":null,"RCS_SIZE":"LARGE","REF_FRAME":"TEME","PERIOD":"95.593","SITE":"AFETR","TIME_SYSTEM":"UTC","MEAN_ELEMENT_THEORY":"SGP4","OBJECT_NAME":"STARLINK-1377","APOAPSIS":"547.978","REV_AT_EPOCH":"17213","MEAN_MOTION_DDOT":"0.0000000000000","MEAN_MOTION_DOT":"0.00003865","TLE_LINE2":"2 45547  53.0544 342.5683 0001058  79.6605 280.4503 15.06389772172130","FILE":"3920354","LAUNCH_DATE":"2020-04-22","EPHEMERIS_TYPE":"0","OBJECT_TYPE":"PAYLOAD","INCLINATION":"53.0544","ECCENTRICITY":"0.00010580","BSTAR":"0.00027830000000","EPOCH":"2023-05-29T19:33:14.671296","ARG_OF_PERICENTER":"79.6605","SEMIMAJOR_AXIS":"6925.380","GP_ID":"232776175","MEAN_MOTION":"15.06389772"},{"OBJECT_NAME":"STARLINK-1378","TLE_LINE2":"2 45548  53.0552 342.1638 0001223 103.1136 256.9990 15.06385876172131","MEAN_MOTION_DOT":"-0.00002980","APOAPSIS":"548.104","MEAN_MOTION_DDOT":"0.0000000000000","REV_AT_EPOCH":"17213","EPHEMERIS_TYPE":"0","LAUNCH_DATE":"2020-04-22","FILE":"3920354","INCLINATION":"53.0552","OBJECT_TYPE":"PAYLOAD","BSTAR":"-0.00018134000000","ECCENTRICITY":"0.00012230","ARG_OF_PERICENTER":"103.1136","SEMIMAJOR_AXIS":"6925.392","EPOCH":"2023-05-29T21:45:56.325888","MEAN_MOTION":"15.06385876","GP_ID":"232777426","TLE_LINE1":"1 45548U 20025T   23149.90690192 -.00002980  00000-0 -18134-3 0  9991","COUNTRY_CODE":"US","MEAN_ANOMALY":"256.9990","PERIAPSIS":"546.410","ELEMENT_SET_NO":"999","NORAD_CAT_ID":"45548","CENTER_NAME":"EARTH","CLASSIFICATION_TYPE":"U","RA_OF_ASC_NODE":"342.1638","DECAY_DATE":null,"OBJECT_ID":"2020-025T","RCS_SIZE":"LARGE","TIME_SYSTEM":"UTC","MEAN_ELEMENT_THEORY":"SGP4","SITE":"AFETR","PERIOD":"95.593","REF_FRAME":"TEME"}];
